[{"OBJECT_NAME":"STARLINK-32900","OBJECT_ID":"2025-037S","EPOCH":"2025-11-20T06:34:50.716704","MEAN_MOTION":14.98336663,"ECCENTRICITY":0.00031846,"INCLINATION":70.0006,"RA_OF_ASC_NODE":270.2876,"ARG_OF_PERICENTER":270.3804,"MEAN_ANOMALY":89.699,"EPHEMERIS_TYPE":0,"CLASSIFICATION_TYPE":"U","NORAD_CAT_ID":63093,"ELEMENT_SET_NO":999,"REV_AT_EPOCH":4207,"BSTAR":0.00029606728,"MEAN_MOTION_DOT":3.442e-5,"MEAN_MOTION_DDOT":0},{"OBJECT_NAME":"STARLINK-32927","OBJECT_ID":"2025-037T","EPOCH":"2025-11-20T05:40:47.258976","MEAN_MOTION":14.98337312,"ECCENTRICITY":0.00022974,"INCLINATION":70.0017,"RA_OF_ASC_NODE":270.5623,"ARG_OF_PERICENTER":268.5415,"MEAN_ANOMALY":91.5481,"EPHEMERIS_TYPE":0,"CLASSIFICATION_TYPE":"U","NORAD_CAT_ID":63094,"ELEMENT_SET_NO":999,"REV_AT_EPOCH":4215,"BSTAR":0.00054627683,"MEAN_MOTION_DOT":6.432e-5,"MEAN_MOTION_DDOT":0},{"OBJECT_NAME":"STARLINK-32907","OBJECT_ID":"2025-037U","EPOCH":"2025-11-20T05:22:45.348672","MEAN_MOTION":14.98334923,"ECCENTRICITY":0.00028052,"INCLINATION":70.0013,"RA_OF_ASC_NODE":270.5137,"ARG_OF_PERICENTER":277.8722,"MEAN_ANOMALY":82.2118,"EPHEMERIS_TYPE":0,"CLASSIFICATION_TYPE":"U","NORAD_CAT_ID":63095,"ELEMENT_SET_NO":999,"REV_AT_EPOCH":4215,"BSTAR":0.00015017487,"MEAN_MOTION_DOT":1.7e-5,"MEAN_MOTION_DDOT":0},{"OBJECT_NAME":"STARLINK-32911","OBJECT_ID":"2025-037V","EPOCH":"2025-11-20T05:52:48.946080","MEAN_MOTION":14.98371078,"ECCENTRICITY":0.00022828,"INCLINATION":70.0032,"RA_OF_ASC_NODE":270.5856,"ARG_OF_PERICENTER":261.3684,"MEAN_ANOMALY":98.7216,"EPHEMERIS_TYPE":0,"CLASSIFICATION_TYPE":"U","NORAD_CAT_ID":63096,"ELEMENT_SET_NO":999,"REV_AT_EPOCH":4220,"BSTAR":-0.0042821724,"MEAN_MOTION_DOT":-0.0005087,"MEAN_MOTION_DDOT":0},{"OBJECT_NAME":"STARLINK-32923","OBJECT_ID":"2025-037W","EPOCH":"2025-11-20T06:10:48.518400","MEAN_MOTION":14.98328209,"ECCENTRICITY":0.00027943,"INCLINATION":70.0011,"RA_OF_ASC_NODE":270.2313,"ARG_OF_PERICENTER":267.755,"MEAN_ANOMALY":92.3289,"EPHEMERIS_TYPE":0,"CLASSIFICATION_TYPE":"U","NORAD_CAT_ID":63097,"ELEMENT_SET_NO":999,"REV_AT_EPOCH":4221,"BSTAR":-8.787024e-6,"MEAN_MOTION_DOT":-1.98e-6,"MEAN_MOTION_DDOT":0},{"OBJECT_NAME":"STARLINK-32913","OBJECT_ID":"2025-037X","EPOCH":"2025-11-20T06:28:48.777600","MEAN_MOTION":14.98386042,"ECCENTRICITY":0.00027946,"INCLINATION":70.0017,"RA_OF_ASC_NODE":270.2674,"ARG_OF_PERICENTER":253.7504,"MEAN_ANOMALY":106.3348,"EPHEMERIS_TYPE":0,"CLASSIFICATION_TYPE":"U","NORAD_CAT_ID":63098,"ELEMENT_SET_NO":999,"REV_AT_EPOCH":4222,"BSTAR":0.0020958066,"MEAN_MOTION_DOT":0.00025039,"MEAN_MOTION_DDOT":0},{"OBJECT_NAME":"STARLINK-11629 [DTC]","OBJECT_ID":"2025-039A","EPOCH":"2025-11-19T23:32:04.668576","MEAN_MOTION":15.71103779,"ECCENTRICITY":0.00027999,"INCLINATION":42.9974,"RA_OF_ASC_NODE":177.9061,"ARG_OF_PERICENTER":258.8131,"MEAN_ANOMALY":101.2422,"EPHEMERIS_TYPE":0,"CLASSIFICATION_TYPE":"U","NORAD_CAT_ID":63104,"ELEMENT_SET_NO":999,"REV_AT_EPOCH":4236,"BSTAR":0.0022893315,"MEAN_MOTION_DOT":0.0030785,"MEAN_MOTION_DDOT":0},{"OBJECT_NAME":"STARLINK-11624 [DTC]","OBJECT_ID":"2025-039B","EPOCH":"2025-11-19T23:02:59.635680","MEAN_MOTION":15.70890048,"ECCENTRICITY":0.00014644,"INCLINATION":42.9985,"RA_OF_ASC_NODE":178.6394,"ARG_OF_PERICENTER":268.843,"MEAN_ANOMALY":91.227,"EPHEMERIS_TYPE":0,"CLASSIFICATION_TYPE":"U","NORAD_CAT_ID":63105,"ELEMENT_SET_NO":999,"REV_AT_EPOCH":4235,"BSTAR":0.0014661905,"MEAN_MOTION_DOT":0.00192509,"MEAN_MOTION_DDOT":0},{"OBJECT_NAME":"STARLINK-11584 [DTC]","OBJECT_ID":"2025-039C","EPOCH":"2025-11-19T23:01:40.811232","MEAN_MOTION":15.7088699,"ECCENTRICITY":0.00024767,"INCLINATION":43.0006,"RA_OF_ASC_NODE":178.6315,"ARG_OF_PERICENTER":273.745,"MEAN_ANOMALY":86.3134,"EPHEMERIS_TYPE":0,"CLASSIFICATION_TYPE":"U","NORAD_CAT_ID":63106,"ELEMENT_SET_NO":999,"REV_AT_EPOCH":4235,"BSTAR":0.00152241,"MEAN_MOTION_DOT":0.00200074,"MEAN_MOTION_DDOT":0},{"OBJECT_NAME":"STARLINK-11627 [DTC]","OBJECT_ID":"2025-039D","EPOCH":"2025-11-19T23:47:22.024032","MEAN_MOTION":15.70896587,"ECCENTRICITY":0.00022673,"INCLINATION":42.9993,"RA_OF_ASC_NODE":177.9957,"ARG_OF_PERICENTER":288.3422,"MEAN_ANOMALY":71.7199,"EPHEMERIS_TYPE":0,"CLASSIFICATION_TYPE":"U","NORAD_CAT_ID":63107,"ELEMENT_SET_NO":999,"REV_AT_EPOCH":4236,"BSTAR":0.001185549,"MEAN_MOTION_DOT":0.00154915,"MEAN_MOTION_DDOT":0},{"OBJECT_NAME":"STARLINK-11632 [DTC]","OBJECT_ID":"2025-039E","EPOCH":"2025-11-20T01:41:51.543744","MEAN_MOTION":15.70901581,"ECCENTRICITY":0.00028773,"INCLINATION":43.0014,"RA_OF_ASC_NODE":177.7366,"ARG_OF_PERICENTER":273.7353,"MEAN_ANOMALY":86.3186,"EPHEMERIS_TYPE":0,"CLASSIFICATION_TYPE":"U","NORAD_CAT_ID":63108,"ELEMENT_SET_NO":999,"REV_AT_EPOCH":4237,"BSTAR":0.001593187,"MEAN_MOTION_DOT":0.00209779,"MEAN_MOTION_DDOT":0},{"OBJECT_NAME":"STARLINK-11625 [DTC]","OBJECT_ID":"2025-039F","EPOCH":"2025-11-19T15:08:35.528064","MEAN_MOTION":15.7090882,"ECCENTRICITY":0.0001315,"INCLINATION":42.999,"RA_OF_ASC_NODE":180.4614,"ARG_OF_PERICENTER":253.4934,"MEAN_ANOMALY":106.5789,"EPHEMERIS_TYPE":0,"CLASSIFICATION_TYPE":"U","NORAD_CAT_ID":63109,"ELEMENT_SET_NO":999,"REV_AT_EPOCH":4230,"BSTAR":0.0019568,"MEAN_MOTION_DOT":0.00259383,"MEAN_MOTION_DDOT":0},{"OBJECT_NAME":"STARLINK-11601 [DTC]","OBJECT_ID":"2025-039G","EPOCH":"2025-11-19T14:45:39.144096","MEAN_MOTION":15.70957887,"ECCENTRICITY":0.0002589,"INCLINATION":42.9988,"RA_OF_ASC_NODE":180.3318,"ARG_OF_PERICENTER":153.684,"MEAN_ANOMALY":206.4159,"EPHEMERIS_TYPE":0,"CLASSIFICATION_TYPE":"U","NORAD_CAT_ID":63110,"ELEMENT_SET_NO":999,"REV_AT_EPOCH":4230,"BSTAR":0.0016098,"MEAN_MOTION_DOT":0.00212536,"MEAN_MOTION_DDOT":0},{"OBJECT_NAME":"STARLINK-11630 [DTC]","OBJECT_ID":"2025-039H","EPOCH":"2025-11-19T22:54:02.370240","MEAN_MOTION":15.70895911,"ECCENTRICITY":0.00018738,"INCLINATION":42.9981,"RA_OF_ASC_NODE":178.5879,"ARG_OF_PERICENTER":289.9331,"MEAN_ANOMALY":70.1334,"EPHEMERIS_TYPE":0,"CLASSIFICATION_TYPE":"U","NORAD_CAT_ID":63111,"ELEMENT_SET_NO":999,"REV_AT_EPOCH":4235,"BSTAR":0.0020512815,"MEAN_MOTION_DOT":0.00272202,"MEAN_MOTION_DDOT":0},{"OBJECT_NAME":"STARLINK-11590 [DTC]","OBJECT_ID":"2025-039J","EPOCH":"2025-11-19T23:09:19.443168","MEAN_MOTION":15.70892206,"ECCENTRICITY":0.00025474,"INCLINATION":42.9987,"RA_OF_ASC_NODE":178.6707,"ARG_OF_PERICENTER":275.8109,"MEAN_ANOMALY":84.2468,"EPHEMERIS_TYPE":0,"CLASSIFICATION_TYPE":"U","NORAD_CAT_ID":63112,"ELEMENT_SET_NO":999,"REV_AT_EPOCH":4235,"BSTAR":0.0016481379,"MEAN_MOTION_DOT":0.00217132,"MEAN_MOTION_DDOT":0},{"OBJECT_NAME":"STARLINK-11598 [DTC]","OBJECT_ID":"2025-039K","EPOCH":"2025-11-20T01:34:13.141632","MEAN_MOTION":15.70855977,"ECCENTRICITY":0.00014139,"INCLINATION":42.9987,"RA_OF_ASC_NODE":177.6915,"ARG_OF_PERICENTER":270.8969,"MEAN_ANOMALY":89.1737,"EPHEMERIS_TYPE":0,"CLASSIFICATION_TYPE":"U","NORAD_CAT_ID":63113,"ELEMENT_SET_NO":999,"REV_AT_EPOCH":4237,"BSTAR":0.0017514907,"MEAN_MOTION_DOT":0.00230798,"MEAN_MOTION_DDOT":0}]
