STARLINK-32900          
1 63093U 25037S   25324.27419811  .00003442  00000+0  29607-3 0  9996
2 63093  70.0006 270.2876 0003184 270.3804  89.6990 14.98336663 42071
STARLINK-32927          
1 63094U 25037T   25324.23665809  .00006432  00000+0  54628-3 0  9996
2 63094  70.0017 270.5623 0002297 268.5415  91.5481 14.98337312 42156
STARLINK-32907          
1 63095U 25037U   25324.22413598  .00001700  00000+0  15017-3 0  9994
2 63095  70.0013 270.5137 0002805 277.8722  82.2118 14.98334923 42151
STARLINK-32911          
1 63096U 25037V   25324.24501095 -.00050870  00000+0 -42822-2 0  9994
2 63096  70.0032 270.5856 0002282 261.3684  98.7216 14.98371078 42204
STARLINK-32923          
1 63097U 25037W   25324.25750600 -.00000198  00000+0 -87870-5 0  9997
2 63097  70.0011 270.2313 0002794 267.7550  92.3289 14.98328209 42216
STARLINK-32913          
1 63098U 25037X   25324.27000900  .00025039  00000+0  20958-2 0  9991
2 63098  70.0017 270.2674 0002794 253.7504 106.3348 14.98386042 42229
STARLINK-11629 [DTC]    
1 63104U 25039A   25323.98060959  .00307850  00000+0  22893-2 0  9992
2 63104  42.9974 177.9061 0002799 258.8131 101.2422 15.71103779 42365
STARLINK-11624 [DTC]    
1 63105U 25039B   25323.96041245  .00192509  00000+0  14662-2 0  9996
2 63105  42.9985 178.6394 0001464 268.8430  91.2270 15.70890048 42355
STARLINK-11584 [DTC]    
1 63106U 25039C   25323.95950013  .00200074  00000+0  15224-2 0  9990
2 63106  43.0006 178.6315 0002476 273.7450  86.3134 15.70886990 42351
STARLINK-11627 [DTC]    
1 63107U 25039D   25323.99122713  .00154915  00000+0  11855-2 0  9991
2 63107  42.9993 177.9957 0002267 288.3422  71.7199 15.70896587 42361
STARLINK-11632 [DTC]    
1 63108U 25039E   25324.07073546  .00209779  00000+0  15932-2 0  9990
2 63108  43.0014 177.7366 0002877 273.7353  86.3186 15.70901581 42378
STARLINK-11625 [DTC]    
1 63109U 25039F   25323.63096676  .00259383  00000+0  19568-2 0  9996
2 63109  42.9990 180.4614 0001315 253.4934 106.5789 15.70908820 42303
STARLINK-11601 [DTC]    
1 63110U 25039G   25323.61503639  .00212536  00000+0  16098-2 0  9992
2 63110  42.9988 180.3318 0002589 153.6840 206.4159 15.70957887 42301
STARLINK-11630 [DTC]    
1 63111U 25039H   25323.95419410  .00272202  00000+0  20513-2 0  9996
2 63111  42.9981 178.5879 0001873 289.9331  70.1334 15.70895911 42354
STARLINK-11590 [DTC]    
1 63112U 25039J   25323.96480837  .00217132  00000+0  16481-2 0  9999
2 63112  42.9987 178.6707 0002547 275.8109  84.2468 15.70892206 42356
STARLINK-11598 [DTC]    
1 63113U 25039K   25324.06542988  .00230798  00000+0  17515-2 0  9990
2 63113  42.9987 177.6915 0001413 270.8969  89.1737 15.70855977 42376
